NORAD_CAT_ID,OBJECT_NAME,OBJECT_TYPE,EPOCH,MEAN_MOTION,ECCENTRICITY,INCLINATION,RA_OF_ASC_NODE,ARG_OF_PERICENTER,MEAN_ANOMALY,BSTAR,MEAN_MOTION_DOT,MEAN_MOTION_DDOT,TLE_LINE0,TLE_LINE1,TLE_LINE2,SEMIMAJOR_AXIS,PERIOD,APOGEE,PERIGEE,DECAYED
52331.0,STARLINK-3889,PAYLOAD,2023-12-09 04:54:20,15.08844171,0.0002063,53.2169,296.9138,84.8348,275.2879,0.00020646,3e-05,0.0,0 STARLINK-3889,1 52331U 22045A   23343.20440497  .00003000  00000-0  20646-3 0  9996,2 52331  53.2169 296.9138 0002063  84.8348 275.2879 15.08844171 91623,6917.868,95.437,541.16,538.305,0.0
52331.0,STARLINK-3889,PAYLOAD,2023-12-09 20:48:11,15.08844365,0.0002108,53.2169,293.9398,85.6673,274.456,0.00010755,1.424e-05,0.0,0 STARLINK-3889,1 52331U 22045A   23343.86680433  .00001424  00000-0  10755-3 0  9992,2 52331  53.2169 293.9398 0002108  85.6673 274.4560 15.08844365 91722,6917.867,95.437,541.19,538.274,0.0
52331.0,STARLINK-3889,PAYLOAD,2023-12-11 03:00:31,15.08840336,0.0002006,53.2172,288.2886,92.0849,268.0373,5.7423e-05,6.26e-06,0.0,0 STARLINK-3889,1 52331U 22045A   23345.12536666  .00000626  00000-0  57423-4 0  9998,2 52331  53.2172 288.2886 0002006  92.0849 268.0373 15.08840336 91915,6917.879,95.438,541.132,538.357,0.0
52331.0,STARLINK-3889,PAYLOAD,2023-12-12 02:51:18,15.0884395,0.0001953,53.2181,283.8278,98.5225,261.5989,0.00014084,1.954e-05,0.0,0 STARLINK-3889,1 52331U 22045A   23346.11896258  .00001954  00000-0  14084-3 0  9994,2 52331  53.2181 283.8278 0001953  98.5225 261.5989 15.08843950 92063,6917.868,95.437,541.084,538.382,0.0
52331.0,STARLINK-3889,PAYLOAD,2023-12-13 02:42:05,15.08838501,0.0002016,53.2184,279.3687,105.3167,254.8048,6.1068e-05,6.84e-06,0.0,0 STARLINK-3889,1 52331U 22045A   23347.11256857  .00000684  00000-0  61068-4 0  9994,2 52331  53.2184 279.3687 0002016 105.3167 254.8048 15.08838501 92217,6917.885,95.438,541.145,538.355,0.0
52331.0,STARLINK-3889,PAYLOAD,2023-12-14 00:57:30,15.0883281,0.0002134,53.2187,275.2068,112.7054,247.4164,-1.0539e-05,-4.56e-06,0.0,0 STARLINK-3889,1 52331U 22045A   23348.03993564 -.00000456  00000-0 -10539-4 0  9995,2 52331  53.2187 275.2068 0002134 112.7054 247.4164 15.08832810 92355,6917.902,95.438,541.244,538.291,0.0
52331.0,STARLINK-3889,PAYLOAD,2023-12-15 00:48:16,15.08848955,0.0002057,53.2189,270.7518,118.7209,241.399,0.00017249,2.459e-05,0.0,0 STARLINK-3889,1 52331U 22045A   23349.03352264  .00002459  00000-0  17249-3 0  9999,2 52331  53.2189 270.7518 0002057 118.7209 241.3990 15.08848955 92503,6917.853,95.437,541.141,538.295,0.0
52331.0,STARLINK-3889,PAYLOAD,2023-12-16 02:14:27,15.08836924,0.000145,53.2166,265.9857,97.8435,262.2722,-1.6567e-05,-5.52e-06,0.0,0 STARLINK-3889,1 52331U 22045A   23350.09337265 -.00000552  00000-0 -16567-4 0  9998,2 52331  53.2166 265.9857 0001450  97.8435 262.2722 15.08836924 92669,6917.89,95.438,540.758,538.752,0.0
52331.0,STARLINK-3889,PAYLOAD,2023-12-17 00:29:51,15.08844563,0.0001465,53.2162,261.8228,81.9105,278.2053,0.00015426,2.168e-05,0.0,0 STARLINK-3889,1 52331U 22045A   23351.02073070  .00002168  00000-0  15426-3 0  9998,2 52331  53.2162 261.8228 0001465  81.9105 278.2053 15.08844563 92804,6917.866,95.437,540.745,538.718,0.0
52331.0,STARLINK-3889,PAYLOAD,2023-12-17 21:09:51,15.08851154,0.0001565,53.2161,257.9574,77.3248,282.792,0.00031267,4.693e-05,0.0,0 STARLINK-3889,1 52331U 22045A   23351.88184720  .00004693  00000-0  31267-3 0  9993,2 52331  53.2161 257.9574 0001565  77.3248 282.7920 15.08851154 92932,6917.846,95.437,540.794,538.629,0.0
52331.0,STARLINK-3889,PAYLOAD,2023-12-18 00:20:37,15.08858061,0.0001459,53.2147,257.3645,82.4416,277.6742,0.00044363,6.783e-05,0.0,0 STARLINK-3889,1 52331U 22045A   23352.01432440  .00006783  00000-0  44363-3 0  9997,2 52331  53.2147 257.3645 0001459  82.4416 277.6742 15.08858061 92956,6917.825,95.436,540.699,538.681,0.0
52331.0,STARLINK-3889,PAYLOAD,2023-12-18 22:36:01,15.08842823,0.0001434,53.215,253.1978,106.3154,253.7996,3.82e-05,3.2e-06,0.0,0 STARLINK-3889,1 52331U 22045A   23352.94168673  .00000320  00000-0  38200-4 0  9998,2 52331  53.2150 253.1978 0001434 106.3154 253.7996 15.08842823 93092,6917.872,95.437,540.729,538.745,0.0
52331.0,STARLINK-3889,PAYLOAD,2023-12-19 00:11:24,15.08842114,0.0001451,53.2156,252.9,90.5281,269.5877,2.0458e-05,3.8e-07,0.0,0 STARLINK-3889,1 52331U 22045A   23353.00792777  .00000038  00000-0  20458-4 0  9996,2 52331  53.2156 252.9000 0001451  90.5281 269.5877 15.08842114 93103,6917.874,95.437,540.743,538.735,0.0
52331.0,STARLINK-3889,PAYLOAD,2023-12-20 00:02:12,15.0884012,0.0001408,53.2153,248.4402,95.6811,264.4342,5.3612e-05,5.65e-06,0.0,0 STARLINK-3889,1 52331U 22045A   23354.00153025  .00000565  00000-0  53612-4 0  9997,2 52331  53.2153 248.4402 0001408  95.6811 264.4342 15.08840120 93255,6917.88,95.438,540.719,538.771,0.0
52331.0,STARLINK-3889,PAYLOAD,2023-12-20 22:17:36,15.08840943,0.0001392,53.2153,244.2773,91.4476,268.6675,0.00018005,2.579e-05,0.0,0 STARLINK-3889,1 52331U 22045A   23354.92889184  .00002579  00000-0  18005-3 0  9993,2 52331  53.2153 244.2773 0001392  91.4476 268.6675 15.08840943 93396,6917.878,95.437,540.705,538.78,0.0
52331.0,STARLINK-3889,PAYLOAD,2023-12-21 22:08:23,15.0883478,0.0001354,53.2152,239.8172,94.3548,265.7599,-1.438e-05,-5.17e-06,0.0,0 STARLINK-3889,1 52331U 22045A   23355.92249679 -.00000517  00000-0 -14380-4 0  9998,2 52331  53.2152 239.8172 0001354  94.3548 265.7599 15.08834780 93540,6917.896,95.438,540.698,538.825,0.0
52331.0,STARLINK-3889,PAYLOAD,2023-12-22 20:23:47,15.08845689,0.000185,53.2157,235.6528,134.1262,225.9883,-0.00013191,-2.387e-05,0.0,0 STARLINK-3889,1 52331U 22045A   23356.84985171 -.00002387  00000-0 -13191-3 0  9999,2 52331  53.2157 235.6528 0001850 134.1262 225.9883 15.08845689 93680,6917.863,95.437,541.008,538.448,0.0
52331.0,STARLINK-3889,PAYLOAD,2023-12-22 21:59:10,15.08839091,0.0001423,53.2153,235.3521,87.8754,272.2401,0.00014946,2.091e-05,0.0,0 STARLINK-3889,1 52331U 22045A   23356.91609732  .00002091  00000-0  14946-3 0  9992,2 52331  53.2153 235.3521 0001423  87.8754 272.2401 15.08839091 93694,6917.883,95.438,540.733,538.764,0.0
52331.0,STARLINK-3889,PAYLOAD,2023-12-22 23:34:34,15.08826514,0.0001613,53.2158,235.0594,74.6748,285.4423,0.00060942,9.421e-05,0.0,0 STARLINK-3889,1 52331U 22045A   23356.98234565  .00009421  00000-0  60942-3 0  9998,2 52331  53.2158 235.0594 0001613  74.6748 285.4423 15.08826514 93702,6917.922,95.438,540.902,538.671,0.0
52331.0,STARLINK-3889,PAYLOAD,2023-12-23 15:28:25,15.08840781,0.0001707,53.2156,232.0933,64.1219,295.9949,0.00020134,2.918e-05,0.0,0 STARLINK-3889,1 52331U 22045A   23357.64474040  .00002918  00000-0  20134-3 0  9999,2 52331  53.2156 232.0933 0001707  64.1219 295.9949 15.08840781 93807,6917.878,95.438,540.924,538.562,0.0
52331.0,STARLINK-3889,PAYLOAD,2023-12-23 21:49:58,15.08838524,0.0001726,53.2155,230.9004,64.1201,295.9969,0.00015323,2.151e-05,0.0,0 STARLINK-3889,1 52331U 22045A   23357.90970242  .00002151  00000-0  15323-3 0  9996,2 52331  53.2155 230.9004 0001726  64.1201 295.9969 15.08838524 93842,6917.885,95.438,540.944,538.556,0.0
52331.0,STARLINK-3889,PAYLOAD,2023-12-24 01:00:43,15.08846578,0.0001419,53.2158,230.3028,104.2332,255.8818,0.0002198,3.213e-05,0.0,0 STARLINK-3889,1 52331U 22045A   23358.04217563  .00003213  00000-0  21980-3 0  9998,2 52331  53.2158 230.3028 0001419 104.2332 255.8818 15.08846578 93863,6917.86,95.437,540.707,538.744,0.0
52331.0,STARLINK-3889,PAYLOAD,2023-12-24 20:05:21,15.08845276,0.0001409,53.2144,226.7332,117.4357,242.6779,3.1488e-05,2.13e-06,0.0,0 STARLINK-3889,1 52331U 22045A   23358.83705517  .00000213  00000-0  31488-4 0  9998,2 52331  53.2144 226.7332 0001409 117.4357 242.6779 15.08845276 93984,6917.864,95.437,540.704,538.755,0.0
52331.0,STARLINK-3889,PAYLOAD,2023-12-24 21:40:44,15.0884823,0.0001513,53.2149,226.4338,118.4364,241.6781,5.8776e-05,6.48e-06,0.0,0 STARLINK-3889,1 52331U 22045A   23358.90329264  .00000648  00000-0  58776-4 0  9998,2 52331  53.2149 226.4338 0001513 118.4364 241.6781 15.08848230 93993,6917.855,95.437,540.767,538.674,0.0
52331.0,STARLINK-3889,PAYLOAD,2023-12-25 00:51:30,15.08851417,0.0001529,53.2158,225.8368,116.132,243.9829,0.00011287,1.509e-05,0.0,0 STARLINK-3889,1 52331U 22045A   23359.03577125  .00001509  00000-0  11287-3 0  9996,2 52331  53.2158 225.8368 0001529 116.1320 243.9829 15.08851417 94016,6917.845,95.437,540.768,538.653,0.0
52331.0,STARLINK-3889,PAYLOAD,2023-12-25 19:56:08,15.08841957,0.0002238,53.2164,222.2648,137.636,222.4805,-4.6025e-05,-1.021e-05,0.0,0 STARLINK-3889,1 52331U 22045A   23359.83065646 -.00001021  00000-0 -46025-4 0  9994,2 52331  53.2164 222.2648 0002238 137.6360 222.4805 15.08841957 94132,6917.874,95.437,541.288,538.191,0.0
52331.0,STARLINK-3889,PAYLOAD,2023-12-25 21:31:32,15.08839231,0.0001383,53.2145,221.9743,93.3263,266.7887,1.2109e-05,-9.5e-07,0.0,0 STARLINK-3889,1 52331U 22045A   23359.89689998 -.00000095  00000-0  12109-4 0  9997,2 52331  53.2145 221.9743 0001383  93.3263 266.7887 15.08839231 94147,6917.883,95.438,540.704,538.791,0.0
52331.0,STARLINK-3889,PAYLOAD,2023-12-26 00:42:18,15.08841855,0.0001384,53.2153,221.3791,100.8544,259.2604,2.0015e-05,3.1e-07,0.0,0 STARLINK-3889,1 52331U 22045A   23360.02937925  .00000031  00000-0  20015-4 0  9994,2 52331  53.2153 221.3791 0001384 100.8544 259.2604 15.08841855 94161,6917.875,95.437,540.697,538.782,0.0
52331.0,STARLINK-3889,PAYLOAD,2023-12-26 21:22:18,15.08847628,0.0001479,53.2165,217.5114,100.5262,259.5896,4.1392e-05,3.71e-06,0.0,0 STARLINK-3889,1 52331U 22045A   23360.89049537  .00000371  00000-0  41392-4 0  9990,2 52331  53.2165 217.5114 0001479 100.5262 259.5896 15.08847628 94293,6917.857,95.437,540.745,538.699,0.0
52331.0,STARLINK-3889,PAYLOAD,2023-12-27 14:51:33,15.08839626,0.0001543,53.2156,214.2419,87.5021,272.6148,0.00011587,1.557e-05,0.0,0 STARLINK-3889,1 52331U 22045A   23361.61914058  .00001557  00000-0  11587-3 0  9999,2 52331  53.2156 214.2419 0001543  87.5021 272.6148 15.08839626 94402,6917.882,95.438,540.814,538.679,0.0
